[{"OBJECT_NAME":"COSMOS 2547","OBJECT_ID":"2020-075A","EPOCH":"2026-03-27T18:17:20.941152","MEAN_MOTION":2.13100219,"ECCENTRICITY":0.00073709,"INCLINATION":64.5985,"RA_OF_ASC_NODE":195.1905,"ARG_OF_PERICENTER":232.5213,"MEAN_ANOMALY":127.4084,"EPHEMERIS_TYPE":0,"CLASSIFICATION_TYPE":"U","NORAD_CAT_ID":46805,"ELEMENT_SET_NO":999,"REV_AT_EPOCH":4217,"BSTAR":0,"MEAN_MOTION_DOT":-3.1e-7,"MEAN_MOTION_DDOT":0},{"OBJECT_NAME":"GPS BIII-4","OBJECT_ID":"2020-078A","EPOCH":"2026-03-31T17:25:14.261664","MEAN_MOTION":2.00565213,"ECCENTRICITY":0.00697188,"INCLINATION":53.9948,"RA_OF_ASC_NODE":213.9186,"ARG_OF_PERICENTER":205.0455,"MEAN_ANOMALY":325.3355,"EPHEMERIS_TYPE":0,"CLASSIFICATION_TYPE":"U","NORAD_CAT_ID":46826,"ELEMENT_SET_NO":999,"REV_AT_EPOCH":3995,"BSTAR":0,"MEAN_MOTION_DOT":-3.6e-7,"MEAN_MOTION_DDOT":0},{"OBJECT_NAME":"GSAT0223 (GALILEO 27)","OBJECT_ID":"2021-116A","EPOCH":"2026-03-26T13:48:11.384928","MEAN_MOTION":1.70475251,"ECCENTRICITY":0.0001802,"INCLINATION":57.1864,"RA_OF_ASC_NODE":343.9082,"ARG_OF_PERICENTER":284.715,"MEAN_ANOMALY":254.2688,"EPHEMERIS_TYPE":0,"CLASSIFICATION_TYPE":"U","NORAD_CAT_ID":49809,"ELEMENT_SET_NO":999,"REV_AT_EPOCH":2677,"BSTAR":0,"MEAN_MOTION_DOT":-9.5e-7,"MEAN_MOTION_DDOT":0},{"OBJECT_NAME":"GSAT0224 (GALILEO 28)","OBJECT_ID":"2021-116B","EPOCH":"2026-03-30T12:02:23.836992","MEAN_MOTION":1.70475612,"ECCENTRICITY":0.00011156,"INCLINATION":57.1872,"RA_OF_ASC_NODE":343.8008,"ARG_OF_PERICENTER":353.673,"MEAN_ANOMALY":187.7063,"EPHEMERIS_TYPE":0,"CLASSIFICATION_TYPE":"U","NORAD_CAT_ID":49810,"ELEMENT_SET_NO":999,"REV_AT_EPOCH":2686,"BSTAR":0,"MEAN_MOTION_DOT":-9.9e-7,"MEAN_MOTION_DDOT":0},{"OBJECT_NAME":"GOES 18","OBJECT_ID":"2022-021A","EPOCH":"2026-04-01T12:19:38.729280","MEAN_MOTION":1.00272806,"ECCENTRICITY":6.12e-5,"INCLINATION":0.0558,"RA_OF_ASC_NODE":41.295,"ARG_OF_PERICENTER":26.8686,"MEAN_ANOMALY":169.6054,"EPHEMERIS_TYPE":0,"CLASSIFICATION_TYPE":"U","NORAD_CAT_ID":51850,"ELEMENT_SET_NO":999,"REV_AT_EPOCH":582,"BSTAR":0,"MEAN_MOTION_DOT":8.7e-7,"MEAN_MOTION_DDOT":0},{"OBJECT_NAME":"COSMOS 2557 (706K)","OBJECT_ID":"2022-075A","EPOCH":"2026-03-28T20:46:20.800128","MEAN_MOTION":2.13101767,"ECCENTRICITY":0.00109033,"INCLINATION":64.3444,"RA_OF_ASC_NODE":317.3169,"ARG_OF_PERICENTER":283.6045,"MEAN_ANOMALY":76.3294,"EPHEMERIS_TYPE":0,"CLASSIFICATION_TYPE":"U","NORAD_CAT_ID":52984,"ELEMENT_SET_NO":999,"REV_AT_EPOCH":2900,"BSTAR":0,"MEAN_MOTION_DOT":-3.1e-7,"MEAN_MOTION_DDOT":0},{"OBJECT_NAME":"METEOSAT-12 (MTG-I1)","OBJECT_ID":"2022-170C","EPOCH":"2026-04-01T07:46:23.282112","MEAN_MOTION":1.00273796,"ECCENTRICITY":0.0001696,"INCLINATION":0.7359,"RA_OF_ASC_NODE":26.0003,"ARG_OF_PERICENTER":296.2303,"MEAN_ANOMALY":343.7115,"EPHEMERIS_TYPE":0,"CLASSIFICATION_TYPE":"U","NORAD_CAT_ID":54743,"ELEMENT_SET_NO":999,"REV_AT_EPOCH":1220,"BSTAR":0,"MEAN_MOTION_DOT":-1.7e-7,"MEAN_MOTION_DDOT":0},{"OBJECT_NAME":"METEOR-M2 3","OBJECT_ID":"2023-091A","EPOCH":"2026-04-01T12:17:53.493216","MEAN_MOTION":14.24040011,"ECCENTRICITY":0.0004635,"INCLINATION":98.6165,"RA_OF_ASC_NODE":148.0312,"ARG_OF_PERICENTER":46.7465,"MEAN_ANOMALY":313.41,"EPHEMERIS_TYPE":0,"CLASSIFICATION_TYPE":"U","NORAD_CAT_ID":57166,"ELEMENT_SET_NO":999,"REV_AT_EPOCH":14360,"BSTAR":2.733e-5,"MEAN_MOTION_DOT":2.0e-7,"MEAN_MOTION_DDOT":0},{"OBJECT_NAME":"COSMOS 2569 (703K)","OBJECT_ID":"2023-114A","EPOCH":"2026-03-30T10:02:07.892160","MEAN_MOTION":2.13103852,"ECCENTRICITY":0.0012883,"INCLINATION":65.2586,"RA_OF_ASC_NODE":75.2752,"ARG_OF_PERICENTER":293.5899,"MEAN_ANOMALY":66.2766,"EPHEMERIS_TYPE":0,"CLASSIFICATION_TYPE":"U","NORAD_CAT_ID":57517,"ELEMENT_SET_NO":999,"REV_AT_EPOCH":2058,"BSTAR":0,"MEAN_MOTION_DOT":2.6e-7,"MEAN_MOTION_DDOT":0},{"OBJECT_NAME":"METEOR-M2 4","OBJECT_ID":"2024-039A","EPOCH":"2026-04-01T12:15:02.535264","MEAN_MOTION":14.22420771,"ECCENTRICITY":0.0007798,"INCLINATION":98.6942,"RA_OF_ASC_NODE":51.8026,"ARG_OF_PERICENTER":38.8344,"MEAN_ANOMALY":321.3393,"EPHEMERIS_TYPE":0,"CLASSIFICATION_TYPE":"U","NORAD_CAT_ID":59051,"ELEMENT_SET_NO":999,"REV_AT_EPOCH":10836,"BSTAR":3.4163e-5,"MEAN_MOTION_DOT":3.2e-7,"MEAN_MOTION_DDOT":0},{"OBJECT_NAME":"GSAT0225 (GALILEO 29)","OBJECT_ID":"2024-079A","EPOCH":"2026-03-28T01:49:00.365952","MEAN_MOTION":1.70474547,"ECCENTRICITY":0.00027404,"INCLINATION":55.0678,"RA_OF_ASC_NODE":103.3445,"ARG_OF_PERICENTER":270.8462,"MEAN_ANOMALY":214.737,"EPHEMERIS_TYPE":0,"CLASSIFICATION_TYPE":"U","NORAD_CAT_ID":59598,"ELEMENT_SET_NO":999,"REV_AT_EPOCH":1193,"BSTAR":0,"MEAN_MOTION_DOT":3.9e-7,"MEAN_MOTION_DDOT":0},{"OBJECT_NAME":"GSAT0227 (GALILEO 30)","OBJECT_ID":"2024-079C","EPOCH":"2026-04-01T03:51:17.210304","MEAN_MOTION":1.70474649,"ECCENTRICITY":7.42e-5,"INCLINATION":55.0646,"RA_OF_ASC_NODE":103.2292,"ARG_OF_PERICENTER":8.6243,"MEAN_ANOMALY":351.4227,"EPHEMERIS_TYPE":0,"CLASSIFICATION_TYPE":"U","NORAD_CAT_ID":59600,"ELEMENT_SET_NO":999,"REV_AT_EPOCH":1205,"BSTAR":0,"MEAN_MOTION_DOT":3.6e-7,"MEAN_MOTION_DDOT":0},{"OBJECT_NAME":"GSAT0232 (GALILEO 32)","OBJECT_ID":"2024-167A","EPOCH":"2026-03-30T08:18:50.212800","MEAN_MOTION":1.70474335,"ECCENTRICITY":0.00040309,"INCLINATION":55.2125,"RA_OF_ASC_NODE":223.4742,"ARG_OF_PERICENTER":205.9815,"MEAN_ANOMALY":336.1496,"EPHEMERIS_TYPE":0,"CLASSIFICATION_TYPE":"U","NORAD_CAT_ID":61182,"ELEMENT_SET_NO":999,"REV_AT_EPOCH":953,"BSTAR":0,"MEAN_MOTION_DOT":-3.0e-7,"MEAN_MOTION_DDOT":0},{"OBJECT_NAME":"GSAT0226 (GALILEO 31)","OBJECT_ID":"2024-167B","EPOCH":"2026-03-30T11:58:42.379104","MEAN_MOTION":1.70474291,"ECCENTRICITY":0.0001508,"INCLINATION":55.2093,"RA_OF_ASC_NODE":223.4772,"ARG_OF_PERICENTER":160.3116,"MEAN_ANOMALY":206.8737,"EPHEMERIS_TYPE":0,"CLASSIFICATION_TYPE":"U","NORAD_CAT_ID":61183,"ELEMENT_SET_NO":999,"REV_AT_EPOCH":951,"BSTAR":0,"MEAN_MOTION_DOT":-3.0e-7,"MEAN_MOTION_DDOT":0},{"OBJECT_NAME":"GSAT0233 (GALILEO 33)","OBJECT_ID":"2025-302A","EPOCH":"2026-04-01T09:17:52.008864","MEAN_MOTION":1.70474797,"ECCENTRICITY":0.000246,"INCLINATION":54.2843,"RA_OF_ASC_NODE":104.3167,"ARG_OF_PERICENTER":236.0205,"MEAN_ANOMALY":306.5021,"EPHEMERIS_TYPE":0,"CLASSIFICATION_TYPE":"U","NORAD_CAT_ID":67160,"ELEMENT_SET_NO":999,"REV_AT_EPOCH":181,"BSTAR":0,"MEAN_MOTION_DOT":3.4e-7,"MEAN_MOTION_DDOT":0},{"OBJECT_NAME":"GSAT0234 (GALILEO 34)","OBJECT_ID":"2025-302C","EPOCH":"2026-03-30T22:09:37.497024","MEAN_MOTION":1.70474726,"ECCENTRICITY":0.0003869,"INCLINATION":54.2854,"RA_OF_ASC_NODE":104.3575,"ARG_OF_PERICENTER":286.99,"MEAN_ANOMALY":257.1082,"EPHEMERIS_TYPE":0,"CLASSIFICATION_TYPE":"U","NORAD_CAT_ID":67162,"ELEMENT_SET_NO":999,"REV_AT_EPOCH":184,"BSTAR":0,"MEAN_MOTION_DOT":3.8e-7,"MEAN_MOTION_DDOT":0}]
