COSMOS 2547 [GLONASS-K] 
1 46805U 20075A   26086.76204793 -.00000031  00000+0  00000+0 0  9990
2 46805  64.5985 195.1905 0007370 232.5213 127.4084  2.13100219 42176
NAVSTAR 80 (USA 309)    
1 46826U 20078A   26090.72585951 -.00000036  00000+0  00000+0 0  9990
2 46826  53.9948 213.9186 0069718 205.0455 325.3355  2.00565213 39954
GSAT0223 (GALILEO 27)   
1 49809U 21116A   26085.57513177 -.00000095  00000+0  00000+0 0  9991
2 49809  57.1864 343.9082 0001802 284.7150 254.2688  1.70475251 26779
GSAT0224 (GALILEO 28)   
1 49810U 21116B   26089.50166478 -.00000099  00000+0  00000+0 0  9992
2 49810  57.1872 343.8008 0001115 353.6730 187.7063  1.70475612 26862
GOES 18                 
1 51850U 22021A   26091.51364270  .00000087  00000+0  00000+0 0  9995
2 51850   0.0558  41.2950 0000612  26.8686 169.6054  1.00272806  5827
COSMOS 2557 [GLONASS-K] 
1 52984U 22075A   26087.86551852 -.00000031  00000+0  00000+0 0  9990
2 52984  64.3444 317.3169 0010903 283.6045  76.3294  2.13101767 29006
METEOSAT-12 (MTG-I1)    
1 54743U 22170C   26091.32388058 -.00000017  00000+0  00000+0 0  9997
2 54743   0.7359  26.0003 0001696 296.2303 343.7115  1.00273796 12201
METEOR-M2 3             
1 57166U 23091A   26091.51242469  .00000020  00000+0  27330-4 0  9991
2 57166  98.6165 148.0312 0004635  46.7465 313.4100 14.24040011143604
COSMOS 2569 [GLONASS-K2]
1 57517U 23114A   26089.41814690  .00000026  00000+0  00000+0 0  9990
2 57517  65.2586  75.2752 0012883 293.5899  66.2766  2.13103852 20587
METEOR-M2 4             
1 59051U 24039A   26091.51044601  .00000032  00000+0  34163-4 0  9992
2 59051  98.6942  51.8026 0007798  38.8344 321.3393 14.22420771108365
GSAT0225 (GALILEO 29)   
1 59598U 24079A   26087.07569868  .00000039  00000+0  00000+0 0  9990
2 59598  55.0678 103.3445 0002740 270.8462 214.7370  1.70474547 11938
GSAT0227 (GALILEO 30)   
1 59600U 24079C   26091.16061586  .00000036  00000+0  00000+0 0  9990
2 59600  55.0646 103.2292 0000742   8.6243 351.4227  1.70474649 12057
GSAT0232 (GALILEO 32)   
1 61182U 24167A   26089.34641450 -.00000030  00000+0  00000+0 0  9992
2 61182  55.2125 223.4742 0004030 205.9815 336.1496  1.70474335  9534
GSAT0226 (GALILEO 31)   
1 61183U 24167B   26089.49910161 -.00000030  00000+0  00000+0 0  9997
2 61183  55.2093 223.4772 0001508 160.3116 206.8737  1.70474291  9517
GSAT0233 (GALILEO 33)   
1 67160U 25302A   26091.38740751  .00000034  00000+0  00000+0 0  9990
2 67160  54.2843 104.3167 0002460 236.0205 306.5021  1.70474797  1813
GSAT0234 (GALILEO 34)   
1 67162U 25302C   26089.92335066  .00000038  00000+0  00000+0 0  9992
2 67162  54.2854 104.3575 0003869 286.9900 257.1082  1.70474726  1843
